{
  "type": "FeatureCollection",
  "features": [
    {
      "type": "Feature",
      "properties": {
        "norad_id": 47025,
        "name": "FENGYUN 1C DEB",
        "group": "fengyun-1c-debris",
        "lat": -72.35969632835612,
        "lon": -5.827463440632782,
        "alt_km": 735.9393025660247,
        "timestamp": "2025-12-22T23:36:21.004376+00:00",
        "meta_object_name": "FENGYUN 1C DEB",
        "meta_object_id": "1999-025FBB",
        "meta_epoch": "2025-12-20T09:34:08.170752",
        "meta_mean_motion": 14.46390047,
        "meta_eccentricity": 0.00405413,
        "meta_inclination": 99.0322,
        "meta_ra_of_asc_node": 201.4338,
        "meta_arg_of_pericenter": 335.101,
        "meta_mean_anomaly": 148.2419,
        "meta_ephemeris_type": 0,
        "meta_classification_type": "U",
        "meta_norad_cat_id": 47025,
        "meta_element_set_no": 999,
        "meta_rev_at_epoch": 62852,
        "meta_bstar": 0.0013507496,
        "meta_mean_motion_dot": 4.852e-05,
        "meta_mean_motion_ddot": 0,
        "tle_line1": "1 47025U 99025FBB 25354.39870568  .00004852  00000+0  13507-2 0  9994",
        "tle_line2": "2 47025  99.0322 201.4338 0040541 335.1010 148.2419 14.46390047628523"
      },
      "geometry": {
        "type": "Point",
        "coordinates": [
          -5.827463440632782,
          -72.35969632835612
        ]
      }
    },
    {
      "type": "Feature",
      "properties": {
        "norad_id": 47036,
        "name": "FENGYUN 1C DEB",
        "group": "fengyun-1c-debris",
        "lat": -11.792796095537408,
        "lon": 42.00460096835795,
        "alt_km": 837.5633579410096,
        "timestamp": "2025-12-22T23:36:21.004386+00:00",
        "meta_object_name": "FENGYUN 1C DEB",
        "meta_object_id": "1999-025FBN",
        "meta_epoch": "2025-12-21T21:22:20.214336",
        "meta_mean_motion": 14.15181398,
        "meta_eccentricity": 0.00688084,
        "meta_inclination": 98.7206,
        "meta_ra_of_asc_node": 39.0997,
        "meta_arg_of_pericenter": 71.9152,
        "meta_mean_anomaly": 111.3829,
        "meta_ephemeris_type": 0,
        "meta_classification_type": "U",
        "meta_norad_cat_id": 47036,
        "meta_element_set_no": 999,
        "meta_rev_at_epoch": 60056,
        "meta_bstar": 0.0001328912,
        "meta_mean_motion_dot": 2.21e-06,
        "meta_mean_motion_ddot": 0,
        "tle_line1": "1 47036U 99025FBN 25355.89051174  .00000221  00000+0  13289-3 0  9990",
        "tle_line2": "2 47036  98.7206  39.0997 0068808  71.9152 111.3829 14.15181398600569"
      },
      "geometry": {
        "type": "Point",
        "coordinates": [
          42.00460096835795,
          -11.792796095537408
        ]
      }
    },
    {
      "type": "Feature",
      "properties": {
        "norad_id": 47040,
        "name": "FENGYUN 1C DEB",
        "group": "fengyun-1c-debris",
        "lat": 3.344514775155356,
        "lon": 85.74993172981077,
        "alt_km": 833.8145448049472,
        "timestamp": "2025-12-22T23:36:21.004395+00:00",
        "meta_object_name": "FENGYUN 1C DEB",
        "meta_object_id": "1999-025FBS",
        "meta_epoch": "2025-12-15T23:27:12.170880",
        "meta_mean_motion": 14.06493473,
        "meta_eccentricity": 0.00627218,
        "meta_inclination": 100.2945,
        "meta_ra_of_asc_node": 257.1831,
        "meta_arg_of_pericenter": 223.9582,
        "meta_mean_anomaly": 135.6583,
        "meta_ephemeris_type": 0,
        "meta_classification_type": "U",
        "meta_norad_cat_id": 47040,
        "meta_element_set_no": 999,
        "meta_rev_at_epoch": 89154,
        "meta_bstar": 0.00050503613,
        "meta_mean_motion_dot": 7.95e-06,
        "meta_mean_motion_ddot": 0,
        "tle_line1": "1 47040U 99025FBS 25349.97722420  .00000795  00000+0  50504-3 0  9993",
        "tle_line2": "2 47040 100.2945 257.1831 0062721 223.9582 135.6583 14.06493473891543"
      },
      "geometry": {
        "type": "Point",
        "coordinates": [
          85.74993172981077,
          3.344514775155356
        ]
      }
    },
    {
      "type": "Feature",
      "properties": {
        "norad_id": 47041,
        "name": "FENGYUN 1C DEB",
        "group": "fengyun-1c-debris",
        "lat": -31.425200375286185,
        "lon": -160.84457217711775,
        "alt_km": 544.1062333712944,
        "timestamp": "2025-12-22T23:36:21.004406+00:00",
        "meta_object_name": "FENGYUN 1C DEB",
        "meta_object_id": "1999-025FBT",
        "meta_epoch": "2025-12-21T21:43:52.303872",
        "meta_mean_motion": 15.07613017,
        "meta_eccentricity": 0.00152702,
        "meta_inclination": 98.2551,
        "meta_ra_of_asc_node": 23.0881,
        "meta_arg_of_pericenter": 155.156,
        "meta_mean_anomaly": 328.5248,
        "meta_ephemeris_type": 0,
        "meta_classification_type": "U",
        "meta_norad_cat_id": 47041,
        "meta_element_set_no": 999,
        "meta_rev_at_epoch": 71327,
        "meta_bstar": 0.0019834632,
        "meta_mean_motion_dot": 0.00030313,
        "meta_mean_motion_ddot": 0,
        "tle_line1": "1 47041U 99025FBT 25355.90546648  .00030313  00000+0  19835-2 0  9990",
        "tle_line2": "2 47041  98.2551  23.0881 0015270 155.1560 328.5248 15.07613017713271"
      },
      "geometry": {
        "type": "Point",
        "coordinates": [
          -160.84457217711775,
          -31.425200375286185
        ]
      }
    },
    {
      "type": "Feature",
      "properties": {
        "norad_id": 47042,
        "name": "FENGYUN 1C DEB",
        "group": "fengyun-1c-debris",
        "lat": 9.866166334298251,
        "lon": -106.86854076089004,
        "alt_km": 777.7589200575494,
        "timestamp": "2025-12-22T23:36:21.004416+00:00",
        "meta_object_name": "FENGYUN 1C DEB",
        "meta_object_id": "1999-025FBU",
        "meta_epoch": "2025-12-19T12:00:36.072000",
        "meta_mean_motion": 14.22844145,
        "meta_eccentricity": 0.0055101,
        "meta_inclination": 99.0013,
        "meta_ra_of_asc_node": 251.153,
        "meta_arg_of_pericenter": 15.4542,
        "meta_mean_anomaly": 162.9996,
        "meta_ephemeris_type": 0,
        "meta_classification_type": "U",
        "meta_norad_cat_id": 47042,
        "meta_element_set_no": 999,
        "meta_rev_at_epoch": 62617,
        "meta_bstar": 0.00020738,
        "meta_mean_motion_dot": 4.26e-06,
        "meta_mean_motion_ddot": 0,
        "tle_line1": "1 47042U 99025FBU 25353.50041750  .00000426  00000+0  20738-3 0  9996",
        "tle_line2": "2 47042  99.0013 251.1530 0055101  15.4542 162.9996 14.22844145626170"
      },
      "geometry": {
        "type": "Point",
        "coordinates": [
          -106.86854076089004,
          9.866166334298251
        ]
      }
    },
    {
      "type": "Feature",
      "properties": {
        "norad_id": 47100,
        "name": "FENGYUN 1C DEB",
        "group": "fengyun-1c-debris",
        "lat": 66.08667007305895,
        "lon": 18.2501888258761,
        "alt_km": 768.3124125838594,
        "timestamp": "2025-12-22T23:36:21.004426+00:00",
        "meta_object_name": "FENGYUN 1C DEB",
        "meta_object_id": "1999-025FBY",
        "meta_epoch": "2025-12-22T11:30:36.333216",
        "meta_mean_motion": 14.5155841,
        "meta_eccentricity": 0.00891467,
        "meta_inclination": 99.0201,
        "meta_ra_of_asc_node": 176.7177,
        "meta_arg_of_pericenter": 324.4354,
        "meta_mean_anomaly": 35.0918,
        "meta_ephemeris_type": 0,
        "meta_classification_type": "U",
        "meta_norad_cat_id": 47100,
        "meta_element_set_no": 999,
        "meta_rev_at_epoch": 26909,
        "meta_bstar": 0.0020436851,
        "meta_mean_motion_dot": 8.566e-05,
        "meta_mean_motion_ddot": 0,
        "tle_line1": "1 47100U 99025FBY 25356.47958719  .00008566  00000+0  20437-2 0  9990",
        "tle_line2": "2 47100  99.0201 176.7177 0089146 324.4354  35.0918 14.51558410269090"
      },
      "geometry": {
        "type": "Point",
        "coordinates": [
          18.2501888258761,
          66.08667007305895
        ]
      }
    },
    {
      "type": "Feature",
      "properties": {
        "norad_id": 47104,
        "name": "FENGYUN 1C DEB",
        "group": "fengyun-1c-debris",
        "lat": -55.561904746869004,
        "lon": 39.815397887421014,
        "alt_km": 805.2095507595932,
        "timestamp": "2025-12-22T23:36:21.004436+00:00",
        "meta_object_name": "FENGYUN 1C DEB",
        "meta_object_id": "1999-025FCC",
        "meta_epoch": "2025-12-20T19:25:32.617920",
        "meta_mean_motion": 14.19434358,
        "meta_eccentricity": 0.00403981,
        "meta_inclination": 98.9084,
        "meta_ra_of_asc_node": 24.4065,
        "meta_arg_of_pericenter": 313.3102,
        "meta_mean_anomaly": 46.4707,
        "meta_ephemeris_type": 0,
        "meta_classification_type": "U",
        "meta_norad_cat_id": 47104,
        "meta_element_set_no": 999,
        "meta_rev_at_epoch": 62487,
        "meta_bstar": 0.00016269056,
        "meta_mean_motion_dot": 2.99e-06,
        "meta_mean_motion_ddot": 0,
        "tle_line1": "1 47104U 99025FCC 25354.80940530  .00000299  00000+0  16269-3 0  9995",
        "tle_line2": "2 47104  98.9084  24.4065 0040398 313.3102  46.4707 14.19434358624871"
      },
      "geometry": {
        "type": "Point",
        "coordinates": [
          39.815397887421014,
          -55.561904746869004
        ]
      }
    }
  ]
}